{
  "type": "FeatureCollection",
  "features": [
    {
      "type": "Feature",
      "properties": {
        "norad_id": 36689,
        "name": "FENGYUN 1C DEB",
        "group": "fengyun-1c-debris",
        "lat": 35.42473258658702,
        "lon": 80.191595487738,
        "alt_km": 1058.564604961699,
        "timestamp": "2025-12-27T22:26:48.891345+00:00",
        "meta_object_name": "FENGYUN 1C DEB",
        "meta_object_id": "1999-025DZK",
        "meta_epoch": "2025-11-28T10:04:14.213280",
        "meta_mean_motion": 13.74189275,
        "meta_eccentricity": 0.03131537,
        "meta_inclination": 98.4796,
        "meta_ra_of_asc_node": 227.8431,
        "meta_arg_of_pericenter": 334.7216,
        "meta_mean_anomaly": 23.8887,
        "meta_ephemeris_type": 0,
        "meta_classification_type": "U",
        "meta_norad_cat_id": 36689,
        "meta_element_set_no": 999,
        "meta_rev_at_epoch": 58016,
        "meta_bstar": 0.0027905602,
        "meta_mean_motion_dot": 3.71e-05,
        "meta_mean_motion_ddot": 0,
        "tle_line1": "1 36689U 99025DZK 25332.41960895  .00003710  00000+0  27906-2 0  9990",
        "tle_line2": "2 36689  98.4796 227.8431 0313153 334.7216  23.8887 13.74189275580169"
      },
      "geometry": {
        "type": "Point",
        "coordinates": [
          80.191595487738,
          35.42473258658702
        ]
      }
    },
    {
      "type": "Feature",
      "properties": {
        "norad_id": 36691,
        "name": "FENGYUN 1C DEB",
        "group": "fengyun-1c-debris",
        "lat": -27.28031713768642,
        "lon": 5.883576404696455,
        "alt_km": 945.152679559812,
        "timestamp": "2025-12-27T22:26:48.891354+00:00",
        "meta_object_name": "FENGYUN 1C DEB",
        "meta_object_id": "1999-025DZM",
        "meta_epoch": "2025-12-08T17:50:07.073952",
        "meta_mean_motion": 14.07105067,
        "meta_eccentricity": 0.01290803,
        "meta_inclination": 98.6374,
        "meta_ra_of_asc_node": 343.0423,
        "meta_arg_of_pericenter": 246.8073,
        "meta_mean_anomaly": 111.9457,
        "meta_ephemeris_type": 0,
        "meta_classification_type": "U",
        "meta_norad_cat_id": 36691,
        "meta_element_set_no": 999,
        "meta_rev_at_epoch": 59553,
        "meta_bstar": 0.0032098608,
        "meta_mean_motion_dot": 5.753e-05,
        "meta_mean_motion_ddot": 0,
        "tle_line1": "1 36691U 99025DZM 25342.74313743  .00005753  00000+0  32099-2 0  9992",
        "tle_line2": "2 36691  98.6374 343.0423 0129080 246.8073 111.9457 14.07105067595539"
      },
      "geometry": {
        "type": "Point",
        "coordinates": [
          5.883576404696455,
          -27.28031713768642
        ]
      }
    },
    {
      "type": "Feature",
      "properties": {
        "norad_id": 36692,
        "name": "FENGYUN 1C DEB",
        "group": "fengyun-1c-debris",
        "lat": -55.44396835949374,
        "lon": -75.94816679981773,
        "alt_km": 850.8348736513954,
        "timestamp": "2025-12-27T22:26:48.891380+00:00",
        "meta_object_name": "FENGYUN 1C DEB",
        "meta_object_id": "1999-025DZN",
        "meta_epoch": "2025-12-24T13:43:23.157120",
        "meta_mean_motion": 13.93485945,
        "meta_eccentricity": 0.01144657,
        "meta_inclination": 99.9949,
        "meta_ra_of_asc_node": 265.5847,
        "meta_arg_of_pericenter": 342.2339,
        "meta_mean_anomaly": 17.4832,
        "meta_ephemeris_type": 0,
        "meta_classification_type": "U",
        "meta_norad_cat_id": 36692,
        "meta_element_set_no": 999,
        "meta_rev_at_epoch": 59970,
        "meta_bstar": 0.0004851142,
        "meta_mean_motion_dot": 6.19e-06,
        "meta_mean_motion_ddot": 0,
        "tle_line1": "1 36692U 99025DZN 25358.57179580  .00000619  00000+0  48511-3 0  9993",
        "tle_line2": "2 36692  99.9949 265.5847 0114465 342.2339  17.4832 13.93485945599707"
      },
      "geometry": {
        "type": "Point",
        "coordinates": [
          -75.94816679981773,
          -55.44396835949374
        ]
      }
    },
    {
      "type": "Feature",
      "properties": {
        "norad_id": 36695,
        "name": "FENGYUN 1C DEB",
        "group": "fengyun-1c-debris",
        "lat": 44.67510666357989,
        "lon": -25.447132496674794,
        "alt_km": 597.6714477002224,
        "timestamp": "2025-12-27T22:26:48.891392+00:00",
        "meta_object_name": "FENGYUN 1C DEB",
        "meta_object_id": "1999-025DZR",
        "meta_epoch": "2025-12-26T16:18:14.524992",
        "meta_mean_motion": 14.43772665,
        "meta_eccentricity": 0.02577392,
        "meta_inclination": 98.2225,
        "meta_ra_of_asc_node": 341.5575,
        "meta_arg_of_pericenter": 88.1652,
        "meta_mean_anomaly": 274.9036,
        "meta_ephemeris_type": 0,
        "meta_classification_type": "U",
        "meta_norad_cat_id": 36695,
        "meta_element_set_no": 999,
        "meta_rev_at_epoch": 89769,
        "meta_bstar": 0.00022580932,
        "meta_mean_motion_dot": 1.101e-05,
        "meta_mean_motion_ddot": 0,
        "tle_line1": "1 36695U 99025DZR 25360.67933478  .00001101  00000+0  22581-3 0  9990",
        "tle_line2": "2 36695  98.2225 341.5575 0257739  88.1652 274.9036 14.43772665897697"
      },
      "geometry": {
        "type": "Point",
        "coordinates": [
          -25.447132496674794,
          44.67510666357989
        ]
      }
    },
    {
      "type": "Feature",
      "properties": {
        "norad_id": 36696,
        "name": "FENGYUN 1C DEB",
        "group": "fengyun-1c-debris",
        "lat": 51.101670155277986,
        "lon": 0.3422673408247003,
        "alt_km": 765.9541549956793,
        "timestamp": "2025-12-27T22:26:48.891402+00:00",
        "meta_object_name": "FENGYUN 1C DEB",
        "meta_object_id": "1999-025DZS",
        "meta_epoch": "2025-12-20T18:21:37.280448",
        "meta_mean_motion": 14.39290248,
        "meta_eccentricity": 0.0022773,
        "meta_inclination": 98.991,
        "meta_ra_of_asc_node": 4.1437,
        "meta_arg_of_pericenter": 304.9139,
        "meta_mean_anomaly": 54.9908,
        "meta_ephemeris_type": 0,
        "meta_classification_type": "U",
        "meta_norad_cat_id": 36696,
        "meta_element_set_no": 999,
        "meta_rev_at_epoch": 64511,
        "meta_bstar": 0.0012348867,
        "meta_mean_motion_dot": 3.799e-05,
        "meta_mean_motion_ddot": 0,
        "tle_line1": "1 36696U 99025DZS 25354.76501482  .00003799  00000+0  12349-2 0  9995",
        "tle_line2": "2 36696  98.9910   4.1437 0022773 304.9139  54.9908 14.39290248645111"
      },
      "geometry": {
        "type": "Point",
        "coordinates": [
          0.3422673408247003,
          51.101670155277986
        ]
      }
    },
    {
      "type": "Feature",
      "properties": {
        "norad_id": 36699,
        "name": "FENGYUN 1C DEB",
        "group": "fengyun-1c-debris",
        "lat": -13.168226001801825,
        "lon": -1.9353260633736578,
        "alt_km": 825.8506013165543,
        "timestamp": "2025-12-27T22:26:48.891412+00:00",
        "meta_object_name": "FENGYUN 1C DEB",
        "meta_object_id": "1999-025DZV",
        "meta_epoch": "2025-12-26T06:02:44.636064",
        "meta_mean_motion": 14.24309134,
        "meta_eccentricity": 0.009491,
        "meta_inclination": 98.5596,
        "meta_ra_of_asc_node": 354.4053,
        "meta_arg_of_pericenter": 91.1474,
        "meta_mean_anomaly": 270.0581,
        "meta_ephemeris_type": 0,
        "meta_classification_type": "U",
        "meta_norad_cat_id": 36699,
        "meta_element_set_no": 999,
        "meta_rev_at_epoch": 73519,
        "meta_bstar": 0.00024958,
        "meta_mean_motion_dot": 5.62e-06,
        "meta_mean_motion_ddot": 0,
        "tle_line1": "1 36699U 99025DZV 25360.25190551  .00000562  00000+0  24958-3 0  9995",
        "tle_line2": "2 36699  98.5596 354.4053 0094910  91.1474 270.0581 14.24309134735199"
      },
      "geometry": {
        "type": "Point",
        "coordinates": [
          -1.9353260633736578,
          -13.168226001801825
        ]
      }
    },
    {
      "type": "Feature",
      "properties": {
        "norad_id": 36701,
        "name": "FENGYUN 1C DEB",
        "group": "fengyun-1c-debris",
        "lat": -57.313486896484044,
        "lon": -18.13737147904495,
        "alt_km": 968.8281716897263,
        "timestamp": "2025-12-27T22:26:48.891422+00:00",
        "meta_object_name": "FENGYUN 1C DEB",
        "meta_object_id": "1999-025DZX",
        "meta_epoch": "2025-12-27T03:28:57.085824",
        "meta_mean_motion": 13.7138675,
        "meta_eccentricity": 0.02580655,
        "meta_inclination": 102.7469,
        "meta_ra_of_asc_node": 320.1596,
        "meta_arg_of_pericenter": 220.6261,
        "meta_mean_anomaly": 137.5364,
        "meta_ephemeris_type": 0,
        "meta_classification_type": "U",
        "meta_norad_cat_id": 36701,
        "meta_element_set_no": 999,
        "meta_rev_at_epoch": 61336,
        "meta_bstar": 0.0019557624,
        "meta_mean_motion_dot": 2.157e-05,
        "meta_mean_motion_ddot": 0,
        "tle_line1": "1 36701U 99025DZX 25361.14510516  .00002157  00000+0  19558-2 0  9996",
        "tle_line2": "2 36701 102.7469 320.1596 0258065 220.6261 137.5364 13.71386750613368"
      },
      "geometry": {
        "type": "Point",
        "coordinates": [
          -18.13737147904495,
          -57.313486896484044
        ]
      }
    }
  ]
}